{
 "generated_at": "2026-06-13T08:21:29Z",
 "sources": [
  {
   "name": "CelesTrak",
   "url": "https://celestrak.org/NORAD/elements/",
   "license": "frei verfügbar; Attribution. Ursprünglich USSPACECOM/Space-Track."
  },
  {
   "name": "GCAT (J. McDowell, planet4589.org)",
   "url": "https://planet4589.org/space/gcat/",
   "license": "CC-BY 4.0"
  }
 ],
 "satellites": [
  {
   "norad": 44390,
   "name": "ICEYE-X4",
   "intl": "2019-038D",
   "group": "sar",
   "gcat": {
    "class": "B",
    "category": "IMG-R",
    "owner": "ICEYE",
    "state": "FI"
   },
   "omm": {
    "OBJECT_NAME": "ICEYE-X4",
    "OBJECT_ID": "2019-038D",
    "EPOCH": "2026-06-12T21:06:13.920192",
    "MEAN_MOTION": 15.29204771,
    "ECCENTRICITY": 0.001183,
    "INCLINATION": 97.8763,
    "RA_OF_ASC_NODE": 196.5378,
    "ARG_OF_PERICENTER": 324.6829,
    "MEAN_ANOMALY": 35.3625,
    "EPHEMERIS_TYPE": 0,
    "CLASSIFICATION_TYPE": "U",
    "NORAD_CAT_ID": 44390,
    "ELEMENT_SET_NO": 999,
    "REV_AT_EPOCH": 38114,
    "BSTAR": 0.00044193,
    "MEAN_MOTION_DOT": 0.00012474,
    "MEAN_MOTION_DDOT": 0
   }
  },
  {
   "norad": 60549,
   "name": "ICEYE-X40",
   "intl": "2024-149CK",
   "group": "sar",
   "gcat": {
    "class": "B",
    "category": "IMG-R",
    "owner": "ALYAH",
    "state": "UAE"
   },
   "omm": {
    "OBJECT_NAME": "ICEYE-X40",
    "OBJECT_ID": "2024-149CK",
    "EPOCH": "2026-06-12T18:14:38.625792",
    "MEAN_MOTION": 14.97922244,
    "ECCENTRICITY": 0.0006578,
    "INCLINATION": 97.6811,
    "RA_OF_ASC_NODE": 240.3266,
    "ARG_OF_PERICENTER": 94.6907,
    "MEAN_ANOMALY": 265.5066,
    "EPHEMERIS_TYPE": 0,
    "CLASSIFICATION_TYPE": "U",
    "NORAD_CAT_ID": 60549,
    "ELEMENT_SET_NO": 999,
    "REV_AT_EPOCH": 9941,
    "BSTAR": 0.00020641,
    "MEAN_MOTION_DOT": 0.00002375,
    "MEAN_MOTION_DDOT": 0
   }
  },
  {
   "norad": 62700,
   "name": "ICEYE-X41",
   "intl": "2025-009CV",
   "group": "sar",
   "gcat": {
    "class": "B",
    "category": "IMG-R",
    "owner": "ICEUS",
    "state": "US"
   },
   "omm": {
    "OBJECT_NAME": "ICEYE-X41",
    "OBJECT_ID": "2025-009CV",
    "EPOCH": "2026-06-12T18:59:52.728000",
    "MEAN_MOTION": 14.96731192,
    "ECCENTRICITY": 0.0002708,
    "INCLINATION": 97.7079,
    "RA_OF_ASC_NODE": 243.3817,
    "ARG_OF_PERICENTER": 64.4222,
    "MEAN_ANOMALY": 295.728,
    "EPHEMERIS_TYPE": 0,
    "CLASSIFICATION_TYPE": "U",
    "NORAD_CAT_ID": 62700,
    "ELEMENT_SET_NO": 999,
    "REV_AT_EPOCH": 7675,
    "BSTAR": 0.00026683,
    "MEAN_MOTION_DOT": 0.00002992,
    "MEAN_MOTION_DDOT": 0
   }
  },
  {
   "norad": 62698,
   "name": "ICEYE-X42",
   "intl": "2025-009CT",
   "group": "sar",
   "gcat": {
    "class": "B",
    "category": "IMG-R",
    "owner": "SP42",
    "state": "UAE"
   },
   "omm": {
    "OBJECT_NAME": "ICEYE-X42",
    "OBJECT_ID": "2025-009CT",
    "EPOCH": "2026-06-12T18:43:25.971744",
    "MEAN_MOTION": 14.9184528,
    "ECCENTRICITY": 0.0001502,
    "INCLINATION": 97.7397,
    "RA_OF_ASC_NODE": 242.1741,
    "ARG_OF_PERICENTER": 91.8537,
    "MEAN_ANOMALY": 268.2854,
    "EPHEMERIS_TYPE": 0,
    "CLASSIFICATION_TYPE": "U",
    "NORAD_CAT_ID": 62698,
    "ELEMENT_SET_NO": 999,
    "REV_AT_EPOCH": 7663,
    "BSTAR": 0.00024217,
    "MEAN_MOTION_DOT": 0.0000239,
    "MEAN_MOTION_DDOT": 0
   }
  },
  {
   "norad": 60539,
   "name": "ICEYE-X43",
   "intl": "2024-149BZ",
   "group": "sar",
   "gcat": {
    "class": "B",
    "category": "IMG-R",
    "owner": "FAB/ICEYE",
    "state": "BR"
   },
   "omm": {
    "OBJECT_NAME": "ICEYE-X43",
    "OBJECT_ID": "2024-149BZ",
    "EPOCH": "2026-06-12T18:11:49.102944",
    "MEAN_MOTION": 14.99585782,
    "ECCENTRICITY": 0.0008072,
    "INCLINATION": 97.6778,
    "RA_OF_ASC_NODE": 240.7839,
    "ARG_OF_PERICENTER": 97.6508,
    "MEAN_ANOMALY": 262.5632,
    "EPHEMERIS_TYPE": 0,
    "CLASSIFICATION_TYPE": "U",
    "NORAD_CAT_ID": 60539,
    "ELEMENT_SET_NO": 999,
    "REV_AT_EPOCH": 9945,
    "BSTAR": 0.00033565,
    "MEAN_MOTION_DOT": 0.00004073,
    "MEAN_MOTION_DDOT": 0
   }
  },
  {
   "norad": 62707,
   "name": "ICEYE-X44",
   "intl": "2025-009DC",
   "group": "sar",
   "gcat": {
    "class": "B",
    "category": "IMG-R",
    "owner": "SP42",
    "state": "UAE"
   },
   "omm": {
    "OBJECT_NAME": "ICEYE-X44",
    "OBJECT_ID": "2025-009DC",
    "EPOCH": "2026-06-12T04:51:53.090784",
    "MEAN_MOTION": 14.9598942,
    "ECCENTRICITY": 0.00023152,
    "INCLINATION": 97.7059,
    "RA_OF_ASC_NODE": 242.4074,
    "ARG_OF_PERICENTER": 121.8397,
    "MEAN_ANOMALY": 238.3049,
    "EPHEMERIS_TYPE": 0,
    "CLASSIFICATION_TYPE": "U",
    "NORAD_CAT_ID": 62707,
    "ELEMENT_SET_NO": 999,
    "REV_AT_EPOCH": 9919,
    "BSTAR": 0.00024259604,
    "MEAN_MOTION_DOT": 0.00002663,
    "MEAN_MOTION_DDOT": 0
   }
  },
  {
   "norad": 62705,
   "name": "ICEYE-X45",
   "intl": "2025-009DA",
   "group": "sar",
   "gcat": {
    "class": "B",
    "category": "IMG-R",
    "owner": "ICEUS",
    "state": "US"
   },
   "omm": {
    "OBJECT_NAME": "ICEYE-X45",
    "OBJECT_ID": "2025-009DA",
    "EPOCH": "2026-06-12T19:06:07.978752",
    "MEAN_MOTION": 15.0086321,
    "ECCENTRICITY": 0.0000985,
    "INCLINATION": 97.8319,
    "RA_OF_ASC_NODE": 250.445,
    "ARG_OF_PERICENTER": 68.0437,
    "MEAN_ANOMALY": 292.0891,
    "EPHEMERIS_TYPE": 0,
    "CLASSIFICATION_TYPE": "U",
    "NORAD_CAT_ID": 62705,
    "ELEMENT_SET_NO": 999,
    "REV_AT_EPOCH": 7702,
    "BSTAR": 0.00081319,
    "MEAN_MOTION_DOT": 0.00010291,
    "MEAN_MOTION_DDOT": 0
   }
  },
  {
   "norad": 63258,
   "name": "ICEYE-X46",
   "intl": "2025-052BA",
   "group": "sar",
   "gcat": {
    "class": "B",
    "category": "IMG-R",
    "owner": "ICEYE",
    "state": "FI"
   },
   "omm": {
    "OBJECT_NAME": "ICEYE-X46",
    "OBJECT_ID": "2025-052BA",
    "EPOCH": "2026-06-12T06:28:10.523136",
    "MEAN_MOTION": 14.9528457,
    "ECCENTRICITY": 0.00017794,
    "INCLINATION": 97.6901,
    "RA_OF_ASC_NODE": 55.258,
    "ARG_OF_PERICENTER": 83.2931,
    "MEAN_ANOMALY": 276.8493,
    "EPHEMERIS_TYPE": 0,
    "CLASSIFICATION_TYPE": "U",
    "NORAD_CAT_ID": 63258,
    "ELEMENT_SET_NO": 999,
    "REV_AT_EPOCH": 6791,
    "BSTAR": 0.00012552022,
    "MEAN_MOTION_DOT": 0.00001326,
    "MEAN_MOTION_DDOT": 0
   }
  },
  {
   "norad": 62389,
   "name": "ICEYE-X47",
   "intl": "2024-247N",
   "group": "sar",
   "gcat": {
    "class": "B",
    "category": "IMG-R",
    "owner": "ICEYE",
    "state": "FI"
   },
   "omm": {
    "OBJECT_NAME": "ICEYE-X47",
    "OBJECT_ID": "2024-247N",
    "EPOCH": "2026-06-10T08:17:29.587776",
    "MEAN_MOTION": 15.13204771,
    "ECCENTRICITY": 0.00018399,
    "INCLINATION": 44.9967,
    "RA_OF_ASC_NODE": 33.5355,
    "ARG_OF_PERICENTER": 227.5473,
    "MEAN_ANOMALY": 132.5249,
    "EPHEMERIS_TYPE": 0,
    "CLASSIFICATION_TYPE": "U",
    "NORAD_CAT_ID": 62389,
    "ELEMENT_SET_NO": 999,
    "REV_AT_EPOCH": 8114,
    "BSTAR": 0.0002668092,
    "MEAN_MOTION_DOT": 0.00004563,
    "MEAN_MOTION_DDOT": 0
   }
  }
 ]
}
