{"_default": { "891": {"norad_id": "44390", "name": "ICEYE-X4", "tle1": "1 44390U 19038D   26163.87932778  .00012474  00000-0  44193-3 0  9992", "tle2": "2 44390  97.8763 196.5378 0011830 324.6829  35.3625 15.29204771381147", "object_type": "PAYLOAD", "criticality_score": 9.0, "last_updated": "2026-06-13T11:16:06.819600+00:00", "maneuver_count": 0, "owner": "FIN"}, "979": {"norad_id": "60549", "name": "ICEYE-X40", "tle1": "1 60549U 24149CK  26163.76016928  .00002375  00000-0  20641-3 0  9994", "tle2": "2 60549  97.6811 240.3266 0006578  94.6907 265.5066 14.97922244 99419", "object_type": "PAYLOAD", "criticality_score": 7.0, "last_updated": "2026-06-13T11:16:06.819600+00:00", "maneuver_count": 0, "owner": "UAE"}, "1147": {"norad_id": "62389", "name": "ICEYE-X47", "tle1": "1 62389U 24247N   26161.34548134  .00004563  00000-0  26681-3 0  9999", "tle2": "2 62389  44.9967  33.5355 0001840 227.5473 132.5249 15.13204771 81147", "object_type": "PAYLOAD", "criticality_score": 7.0, "last_updated": "2026-06-13T11:16:06.819600+00:00", "maneuver_count": 0, "owner": "FIN"}, "1154": {"norad_id": "60539", "name": "ICEYE-X43", "tle1": "1 60539U 24149BZ  26163.75820721  .00004073  00000-0  33565-3 0  9992", "tle2": "2 60539  97.6778 240.7839 0008072  97.6508 262.5632 14.99585782 99455", "object_type": "PAYLOAD", "criticality_score": 7.0, "last_updated": "2026-06-13T11:16:06.819600+00:00", "maneuver_count": 0, "owner": "BRAZ"}, "1195": {"norad_id": "62705", "name": "ICEYE-X45", "tle1": "1 62705U 25009DA  26163.79592568  .00010291  00000-0  81319-3 0  9993", "tle2": "2 62705  97.8319 250.4450 0000985  68.0437 292.0891 15.00863210 77022", "object_type": "PAYLOAD", "criticality_score": 7.0, "last_updated": "2026-06-13T11:16:06.819600+00:00", "maneuver_count": 0, "owner": "US"}, "1217": {"norad_id": "62700", "name": "ICEYE-X41", "tle1": "1 62700U 25009CV  26163.79158250  .00002992  00000-0  26683-3 0  9996", "tle2": "2 62700  97.7079 243.3817 0002708  64.4222 295.7280 14.96731192 76752", "object_type": "PAYLOAD", "criticality_score": 7.0, "last_updated": "2026-06-13T11:16:06.819600+00:00", "maneuver_count": 0, "owner": "US"}, "1225": {"norad_id": "62698", "name": "ICEYE-X42", "tle1": "1 62698U 25009CT  26163.78016171  .00002390  00000-0  24217-3 0  9999", "tle2": "2 62698  97.7397 242.1741 0001502  91.8537 268.2854 14.91845280 76636", "object_type": "PAYLOAD", "criticality_score": 7.0, "last_updated": "2026-06-13T11:16:06.819600+00:00", "maneuver_count": 0, "owner": "UAE"}, "1317": {"norad_id": "63258", "name": "ICEYE-X46", "tle1": "1 63258U 25052BA  26163.26956624  .00001326  00000-0  12552-3 0  9996", "tle2": "2 63258  97.6901  55.2580 0001779  83.2931 276.8493 14.95284570 67910", "object_type": "PAYLOAD", "criticality_score": 7.0, "last_updated": "2026-06-13T11:16:06.819600+00:00", "maneuver_count": 0, "owner": "FIN"}, "1323": {"norad_id": "62707", "name": "ICEYE-X44", "tle1": "1 62707U 25009DC  26163.20269781  .00002663  00000-0  24260-3 0  9995", "tle2": "2 62707  97.7059 242.4074 0002315 121.8397 238.3049 14.95989420 99194", "object_type": "PAYLOAD", "criticality_score": 7.0, "last_updated": "2026-06-13T11:16:06.819600+00:00", "maneuver_count": 0, "owner": "UAE"}}}